1 43013U 17073A   26168.91765715  .00000047  00000+0  43237-4 0  9996
2 43013  98.7770 108.3738 0000298 103.3678 256.7532 14.19511863444571
